{
  "type": "FeatureCollection",
  "features": [
    {
      "type": "Feature",
      "properties": {
        "norad_id": 27954,
        "name": "GALAXY 13 (HORIZONS-1)",
        "group": "intelsat",
        "lat": 0.592646918165706,
        "lon": -132.59190175869819,
        "alt_km": 35778.65172473564,
        "timestamp": "2025-12-23T18:59:31.657184+00:00",
        "meta_object_name": "GALAXY 13 (HORIZONS-1)",
        "meta_object_id": "2003-044A",
        "meta_epoch": "2025-12-23T05:34:21.917568",
        "meta_mean_motion": 1.00271029,
        "meta_eccentricity": 0.00023505,
        "meta_inclination": 0.9638,
        "meta_ra_of_asc_node": 86.332,
        "meta_arg_of_pericenter": 182.1372,
        "meta_mean_anomaly": 117.1173,
        "meta_ephemeris_type": 0,
        "meta_classification_type": "U",
        "meta_norad_cat_id": 27954,
        "meta_element_set_no": 999,
        "meta_rev_at_epoch": 4480,
        "meta_bstar": 0,
        "meta_mean_motion_dot": 1.53e-06,
        "meta_mean_motion_ddot": 0,
        "tle_line1": "1 27954U 03044A   25357.23219812  .00000153  00000+0  00000+0 0  9995",
        "tle_line2": "2 27954   0.9638  86.3320 0002350 182.1372 117.1173  1.00271029 44800"
      },
      "geometry": {
        "type": "Point",
        "coordinates": [
          -132.59190175869819,
          0.592646918165706
        ]
      }
    },
    {
      "type": "Feature",
      "properties": {
        "norad_id": 28358,
        "name": "INTELSAT 10-02",
        "group": "intelsat",
        "lat": -0.012096084287044177,
        "lon": 16.508422733353477,
        "alt_km": 35784.39410771213,
        "timestamp": "2025-12-23T18:59:31.657195+00:00",
        "meta_object_name": "INTELSAT 10-02",
        "meta_object_id": "2004-022A",
        "meta_epoch": "2025-12-23T02:51:22.948704",
        "meta_mean_motion": 1.00272591,
        "meta_eccentricity": 0.00010506,
        "meta_inclination": 0.0144,
        "meta_ra_of_asc_node": 66.1532,
        "meta_arg_of_pericenter": 239.4749,
        "meta_mean_anomaly": 188.1743,
        "meta_ephemeris_type": 0,
        "meta_classification_type": "U",
        "meta_norad_cat_id": 28358,
        "meta_element_set_no": 999,
        "meta_rev_at_epoch": 7879,
        "meta_bstar": 0,
        "meta_mean_motion_dot": 1.1e-07,
        "meta_mean_motion_ddot": 0,
        "tle_line1": "1 28358U 04022A   25357.11901561  .00000011  00000+0  00000+0 0  9990",
        "tle_line2": "2 28358   0.0144  66.1532 0001050 239.4749 188.1743  1.00272591 78794"
      },
      "geometry": {
        "type": "Point",
        "coordinates": [
          16.508422733353477,
          -0.012096084287044177
        ]
      }
    },
    {
      "type": "Feature",
      "properties": {
        "norad_id": 28626,
        "name": "XM-3 (RHYTHM)",
        "group": "intelsat",
        "lat": 0.011479401345420755,
        "lon": 79.23318626076788,
        "alt_km": 36159.38357891775,
        "timestamp": "2025-12-23T18:59:31.657207+00:00",
        "meta_object_name": "XM-3 (RHYTHM)",
        "meta_object_id": "2005-008A",
        "meta_epoch": "2025-12-23T03:10:06.157344",
        "meta_mean_motion": 0.98949891,
        "meta_eccentricity": 0.00020619,
        "meta_inclination": 0.1999,
        "meta_ra_of_asc_node": 82.0997,
        "meta_arg_of_pericenter": 276.1233,
        "meta_mean_anomaly": 206.125,
        "meta_ephemeris_type": 0,
        "meta_classification_type": "U",
        "meta_norad_cat_id": 28626,
        "meta_element_set_no": 999,
        "meta_rev_at_epoch": 4085,
        "meta_bstar": 0,
        "meta_mean_motion_dot": 9.8e-07,
        "meta_mean_motion_ddot": 0,
        "tle_line1": "1 28626U 05008A   25357.13201571  .00000098  00000+0  00000+0 0  9994",
        "tle_line2": "2 28626   0.1999  82.0997 0002061 276.1233 206.1250  0.98949891 40852"
      },
      "geometry": {
        "type": "Point",
        "coordinates": [
          79.23318626076788,
          0.011479401345420755
        ]
      }
    },
    {
      "type": "Feature",
      "properties": {
        "norad_id": 28659,
        "name": "DIRECTV 8",
        "group": "intelsat",
        "lat": -0.03751507126222939,
        "lon": -101.60358224661347,
        "alt_km": 35774.72736720201,
        "timestamp": "2025-12-23T18:59:31.657217+00:00",
        "meta_object_name": "DIRECTV 8",
        "meta_object_id": "2005-019A",
        "meta_epoch": "2025-12-23T05:51:01.780704",
        "meta_mean_motion": 1.00271584,
        "meta_eccentricity": 0.00029271,
        "meta_inclination": 0.0184,
        "meta_ra_of_asc_node": 19.1553,
        "meta_arg_of_pericenter": 262.5593,
        "meta_mean_anomaly": 139.0377,
        "meta_ephemeris_type": 0,
        "meta_classification_type": "U",
        "meta_norad_cat_id": 28659,
        "meta_element_set_no": 999,
        "meta_rev_at_epoch": 7530,
        "meta_bstar": 0,
        "meta_mean_motion_dot": 2.2e-07,
        "meta_mean_motion_ddot": 0,
        "tle_line1": "1 28659U 05019A   25357.24377061  .00000022  00000+0  00000+0 0  9999",
        "tle_line2": "2 28659   0.0184  19.1553 0002927 262.5593 139.0377  1.00271584 75304"
      },
      "geometry": {
        "type": "Point",
        "coordinates": [
          -101.60358224661347,
          -0.03751507126222939
        ]
      }
    },
    {
      "type": "Feature",
      "properties": {
        "norad_id": 28702,
        "name": "GALAXY 28 (G-28)",
        "group": "intelsat",
        "lat": -1.3428848363904768,
        "lon": -71.26180061576895,
        "alt_km": 35774.56869315292,
        "timestamp": "2025-12-23T18:59:31.657228+00:00",
        "meta_object_name": "GALAXY 28 (G-28)",
        "meta_object_id": "2005-022A",
        "meta_epoch": "2025-12-20T00:49:30.482112",
        "meta_mean_motion": 1.00271047,
        "meta_eccentricity": 0.00029384,
        "meta_inclination": 2.8382,
        "meta_ra_of_asc_node": 81.1982,
        "meta_arg_of_pericenter": 194.0723,
        "meta_mean_anomaly": 97.2981,
        "meta_ephemeris_type": 0,
        "meta_classification_type": "U",
        "meta_norad_cat_id": 28702,
        "meta_element_set_no": 999,
        "meta_rev_at_epoch": 5017,
        "meta_bstar": 0,
        "meta_mean_motion_dot": -1.65e-06,
        "meta_mean_motion_ddot": 0,
        "tle_line1": "1 28702U 05022A   25354.03438058 -.00000165  00000+0  00000+0 0  9999",
        "tle_line2": "2 28702   2.8382  81.1982 0002938 194.0723  97.2981  1.00271047 50172"
      },
      "geometry": {
        "type": "Point",
        "coordinates": [
          -71.26180061576895,
          -1.3428848363904768
        ]
      }
    },
    {
      "type": "Feature",
      "properties": {
        "norad_id": 29236,
        "name": "GALAXY 16 (G-16)",
        "group": "intelsat",
        "lat": -0.017560757935183063,
        "lon": -81.55294349289996,
        "alt_km": 35775.330365227615,
        "timestamp": "2025-12-23T18:59:31.657239+00:00",
        "meta_object_name": "GALAXY 16 (G-16)",
        "meta_object_id": "2006-023A",
        "meta_epoch": "2025-12-23T04:06:08.288928",
        "meta_mean_motion": 1.00272873,
        "meta_eccentricity": 0.00024969,
        "meta_inclination": 0.0456,
        "meta_ra_of_asc_node": 194.1649,
        "meta_arg_of_pericenter": 75.9971,
        "meta_mean_anomaly": 144.3261,
        "meta_ephemeris_type": 0,
        "meta_classification_type": "U",
        "meta_norad_cat_id": 29236,
        "meta_element_set_no": 999,
        "meta_rev_at_epoch": 7120,
        "meta_bstar": 0,
        "meta_mean_motion_dot": -1.06e-06,
        "meta_mean_motion_ddot": 0,
        "tle_line1": "1 29236U 06023A   25357.17092927 -.00000106  00000+0  00000+0 0  9998",
        "tle_line2": "2 29236   0.0456 194.1649 0002496  75.9971 144.3261  1.00272873 71203"
      },
      "geometry": {
        "type": "Point",
        "coordinates": [
          -81.55294349289996,
          -0.017560757935183063
        ]
      }
    },
    {
      "type": "Feature",
      "properties": {
        "norad_id": 29494,
        "name": "DIRECTV 9S",
        "group": "intelsat",
        "lat": -0.470619136721712,
        "lon": -83.7589445334909,
        "alt_km": 35773.8143180532,
        "timestamp": "2025-12-23T18:59:31.657250+00:00",
        "meta_object_name": "DIRECTV 9S",
        "meta_object_id": "2006-043A",
        "meta_epoch": "2025-12-23T04:05:30.848352",
        "meta_mean_motion": 1.0027214,
        "meta_eccentricity": 0.00028908,
        "meta_inclination": 1.9654,
        "meta_ra_of_asc_node": 83.1018,
        "meta_arg_of_pericenter": 193.9974,
        "meta_mean_anomaly": 135.0377,
        "meta_ephemeris_type": 0,
        "meta_classification_type": "U",
        "meta_norad_cat_id": 29494,
        "meta_element_set_no": 999,
        "meta_rev_at_epoch": 4961,
        "meta_bstar": 0,
        "meta_mean_motion_dot": -9.3e-07,
        "meta_mean_motion_ddot": 0,
        "tle_line1": "1 29494U 06043A   25357.17049593 -.00000093  00000+0  00000+0 0  9992",
        "tle_line2": "2 29494   1.9654  83.1018 0002890 193.9974 135.0377  1.00272140 49610"
      },
      "geometry": {
        "type": "Point",
        "coordinates": [
          -83.7589445334909,
          -0.470619136721712
        ]
      }
    }
  ]
}